OBJECT_NAME,OBJECT_ID,EPOCH,MEAN_MOTION,ECCENTRICITY,INCLINATION,RA_OF_ASC_NODE,ARG_OF_PERICENTER,MEAN_ANOMALY,EPHEMERIS_TYPE,CLASSIFICATION_TYPE,NORAD_CAT_ID,ELEMENT_SET_NO,REV_AT_EPOCH,BSTAR,MEAN_MOTION_DOT,MEAN_MOTION_DDOT
KUZGTU 1 (RS47S),2023-091AV,2026-06-18T06:38:39.306912,15.29882510,.00122817,97.5060,233.7680,94.7084,265.5559,0,U,57217,999,16454,.32345116E-3,.9304E-4,0
SONATE-2,2024-043Q,2026-06-17T23:20:56.168448,15.58769943,.00070884,97.5538,319.4165,192.8072,167.3005,0,U,59112,999,12801,.43245733E-3,.33352E-3,0
MESAT1,2024-125G,2026-06-18T03:07:51.989376,15.63288064,.00096632,97.2283,26.6340,200.2618,159.8259,0,U,60209,999,10971,.49994642E-3,.45996E-3,0
OOV-CUBE (TUBSAT-30),2024-128F,2026-06-18T06:04:34.179168,15.02777232,.00445114,61.9932,221.8560,134.0115,226.4659,0,U,60240,999,10627,.12238364E-3,.1463E-4,0
COLIBRI-S (RS67S),2024-199M,2026-06-18T06:57:55.059840,15.47761884,.00062675,97.2988,43.1541,273.5836,86.4697,0,U,61746,999,13758,.31844908E-3,.16437E-3,0
HORS 3 (RS81S),2024-199U,2026-06-18T05:56:50.779680,15.55034976,.00037567,97.2971,45.1094,271.4912,88.5912,0,U,61753,999,13772,.43991519E-3,.29501E-3,0
HORS 4 (RS82S),2024-199V,2026-06-18T06:27:52.096608,15.59766384,.00031657,97.2915,46.3400,251.2475,108.8438,0,U,61754,999,13781,.50697509E-3,.40622E-3,0
SIT-2086,2024-199AF,2026-06-18T07:00:08.954784,15.53150060,.00046682,97.2927,45.6269,244.1750,115.9022,0,U,61764,999,13460,.4526805E-3,.28351E-3,0
HYPERVIEW 1G (RS66S),2024-199AP,2026-06-18T04:56:00.129984,15.76079848,.00038321,97.2865,48.9756,215.0729,145.0285,0,U,61772,999,13483,.81530096E-3,.128218E-2,0
ALTAIR (RS65S),2024-199AW,2026-06-18T06:48:44.889696,15.37035660,.00110361,97.3023,38.6273,306.7414,53.2817,0,U,61779,999,13728,.17383694E-3,.6228E-4,0
ASRTU-1 (AO-123),2024-199AY,2026-06-18T06:32:42.617472,15.35688385,.00122153,97.2994,37.9335,309.7584,50.2583,0,U,61781,999,13409,.17680482E-3,.6069E-4,0
SAMSAT-IONOSPHERE (RS75S),2024-199BB,2026-06-18T06:43:12.631584,15.57708220,.00059138,97.2938,45.1928,270.7852,89.2727,0,U,61784,999,13773,.51314473E-3,.38061E-3,0
RTU MIREA 1 (RS51S),2024-199BC,2026-06-18T05:42:34.084800,15.61183587,.00055484,97.2924,45.9869,261.9254,98.1374,0,U,61785,999,13463,.53097882E-3,.4496E-3,0
TEVEL2-4,2025-052D,2026-06-18T03:50:47.174208,15.34638877,.00048922,97.3899,65.5534,101.1057,259.0736,0,U,63213,999,7026,.416794E-3,.13925E-3,0
TEVEL2-5,2025-052E,2026-06-18T04:20:27.929184,15.34466186,.00048128,97.3897,65.5217,102.5034,257.6748,0,U,63214,999,7026,.4282254E-3,.14231E-3,0
TEVEL2-6,2025-052F,2026-06-17T16:06:59.918976,15.34416475,.00047369,97.3904,64.9959,104.1466,256.0303,0,U,63215,999,7018,.45683142E-3,.15165E-3,0
TEVEL2-1,2025-052H,2026-06-16T23:35:41.336448,15.33862790,.0004776,97.3878,63.9315,114.0246,246.1497,0,U,63217,999,7006,.46759393E-3,.15254E-3,0
TEVEL2-3,2025-052J,2026-06-17T22:57:02.620512,15.33945256,.00047651,97.3877,64.9266,112.2004,247.9744,0,U,63218,999,7021,.44688948E-3,.14612E-3,0
TEVEL2-2,2025-052K,2026-06-16T15:46:26.181408,15.33861744,.00047153,97.3883,63.6082,115.1533,245.0199,0,U,63219,999,7001,.44263378E-3,.14434E-3,0
TEVEL2-9,2025-052AD,2026-06-17T22:34:10.248096,15.31916427,.00078617,97.3937,64.2647,128.7161,231.4784,0,U,63237,999,7014,.4275511E-3,.13118E-3,0
TEVEL2-7,2025-052AE,2026-06-17T15:42:53.506944,15.31613826,.00079147,97.3940,63.8957,129.8998,230.2940,0,U,63238,999,7009,.43518516E-3,.13228E-3,0
TEVEL2-8,2025-052AF,2026-06-17T15:54:46.878912,15.31597535,.00079343,97.3941,63.8807,130.2742,229.9195,0,U,63239,999,7009,.42222049E-3,.12825E-3,0
INNOSAT 16 (RS92S7),2025-155C,2026-06-18T05:57:39.103200,15.25465301,.00106829,97.4567,136.3727,171.6837,188.4580,0,U,64878,999,8083,.17685272E-3,.4407E-4,0
GEOSCAN 6 (RS92S6),2025-155D,2026-06-18T07:02:19.569984,15.30168493,.00085017,97.4561,137.8494,159.0050,201.1541,0,U,64879,999,8093,.26032393E-3,.753E-4,0
GEOSCAN 1 (RS92S1),2025-155E,2026-06-18T05:31:06.128256,15.30763530,.00084211,97.4557,137.9347,158.8823,201.2767,0,U,64880,999,8093,.27275104E-3,.804E-4,0
239ALFEROV (RS61S),2025-155F,2026-06-18T06:19:14.306592,15.32962882,.00081803,97.4557,138.5333,155.7389,204.4240,0,U,64881,999,8097,.36091519E-3,.11428E-3,0
GEOSCAN 2 (RS92S2),2025-155Q,2026-06-18T06:55:51.405024,15.31036445,.00082241,97.4556,138.1468,146.2579,213.9187,0,U,64890,999,8095,.28076477E-3,.8349E-4,0
GEOSCAN 5 (RS92S5),2025-155R,2026-06-18T06:03:06.796800,15.33279713,.00069175,97.4550,138.6598,159.3411,200.8112,0,U,64891,999,8098,.34012455E-3,.10869E-3,0
GEOSCAN 4 (RS92S4),2025-155S,2026-06-18T05:40:11.742528,15.33434530,.0006966,97.4553,138.6927,158.9783,201.1747,0,U,64892,999,8098,.33085588E-3,.10622E-3,0
GEOSCAN 3 (RS92S3),2025-155T,2026-06-18T05:39:19.824768,15.35424452,.00069235,97.4541,139.1246,157.2273,202.9279,0,U,64893,999,8101,.39443474E-3,.13511E-3,0
