KUZGTU 1 (RS47S)        
1 57217U 23091AV  26169.27684383  .00009304  00000+0  32345-3 0  9997
2 57217  97.5060 233.7680 0012281  94.7084 265.5559 15.29882510164544
SONATE-2                
1 59112U 24043Q   26168.97287232  .00033352  00000+0  43246-3 0  9991
2 59112  97.5538 319.4165 0007088 192.8072 167.3005 15.58769943128019
MESAT1                  
1 60209U 24125G   26169.13046284  .00045996  00000+0  49995-3 0  9994
2 60209  97.2283  26.6340 0009663 200.2618 159.8259 15.63288064109714
OOV-CUBE (TUBSAT-30)    
1 60240U 24128F   26169.25317337  .00001463  00000+0  12238-3 0  9996
2 60240  61.9932 221.8560 0044511 134.0115 226.4659 15.02777232106274
COLIBRI-S (RS67S)       
1 61746U 24199M   26169.29022060  .00016437  00000+0  31845-3 0  9998
2 61746  97.2988  43.1541 0006267 273.5836  86.4697 15.47761884137587
HORS 3 (RS81S)          
1 61753U 24199U   26169.24780995  .00029501  00000+0  43992-3 0  9991
2 61753  97.2971  45.1094 0003756 271.4912  88.5912 15.55034976137727
HORS 4 (RS82S)          
1 61754U 24199V   26169.26935297  .00040622  00000+0  50698-3 0  9999
2 61754  97.2915  46.3400 0003165 251.2475 108.8438 15.59766384137812
SIT-2086                
1 61764U 24199AF  26169.29177031  .00028351  00000+0  45268-3 0  9999
2 61764  97.2927  45.6269 0004668 244.1750 115.9022 15.53150060134601
HYPERVIEW 1G (RS66S)    
1 61772U 24199AP  26169.20555706  .00128218  00000+0  81530-3 0  9993
2 61772  97.2865  48.9756 0003832 215.0729 145.0285 15.76079848134832
ALTAIR (RS65S)          
1 61779U 24199AW  26169.28385289  .00006228  00000+0  17384-3 0  9997
2 61779  97.3023  38.6273 0011036 306.7414  53.2817 15.37035660137284
ASRTU-1 (AO-123)        
1 61781U 24199AY  26169.27271548  .00006069  00000+0  17680-3 0  9993
2 61781  97.2994  37.9335 0012215 309.7584  50.2583 15.35688385134094
SAMSAT-IONOSPHERE (RS7*)
1 61784U 24199BB  26169.28000731  .00038061  00000+0  51314-3 0  9990
2 61784  97.2938  45.1928 0005913 270.7852  89.2727 15.57708220137737
RTU MIREA 1 (RS51S)     
1 61785U 24199BC  26169.23789450  .00044960  00000+0  53098-3 0  9994
2 61785  97.2924  45.9869 0005548 261.9254  98.1374 15.61183587134638
TEVEL2-4                
1 63213U 25052D   26169.16026822  .00013925  00000+0  41679-3 0  9999
2 63213  97.3899  65.5534 0004892 101.1057 259.0736 15.34638877 70267
TEVEL2-5                
1 63214U 25052E   26169.18087881  .00014231  00000+0  42823-3 0  9997
2 63214  97.3897  65.5217 0004812 102.5034 257.6748 15.34466186 70265
TEVEL2-6                
1 63215U 25052F   26168.67152684  .00015165  00000+0  45683-3 0  9999
2 63215  97.3904  64.9959 0004736 104.1466 256.0303 15.34416475 70180
TEVEL2-1                
1 63217U 25052H   26167.98311732  .00015254  00000+0  46759-3 0  9999
2 63217  97.3878  63.9315 0004776 114.0246 246.1497 15.33862790 70062
TEVEL2-3                
1 63218U 25052J   26168.95628033  .00014612  00000+0  44689-3 0  9990
2 63218  97.3877  64.9266 0004765 112.2004 247.9744 15.33945256 70218
TEVEL2-2                
1 63219U 25052K   26167.65724747  .00014434  00000+0  44263-3 0  9996
2 63219  97.3883  63.6082 0004715 115.1533 245.0199 15.33861744 70012
TEVEL2-9                
1 63237U 25052AD  26168.94039639  .00013118  00000+0  42755-3 0  9990
2 63237  97.3937  64.2647 0007861 128.7161 231.4784 15.31916427 70148
TEVEL2-7                
1 63238U 25052AE  26168.65478596  .00013228  00000+0  43519-3 0  9999
2 63238  97.3940  63.8957 0007914 129.8998 230.2940 15.31613826 70093
TEVEL2-8                
1 63239U 25052AF  26168.66304258  .00012825  00000+0  42222-3 0  9996
2 63239  97.3941  63.8807 0007934 130.2742 229.9195 15.31597535 70099
INNOSAT 16 (RS92S7)     
1 64878U 25155C   26169.24836925  .00004407  00000+0  17685-3 0  9998
2 64878  97.4567 136.3727 0010682 171.6837 188.4580 15.25465301 80837
GEOSCAN 6 (RS92S6)      
1 64879U 25155D   26169.29328206  .00007530  00000+0  26032-3 0  9998
2 64879  97.4561 137.8494 0008501 159.0050 201.1541 15.30168493 80932
GEOSCAN 1 (RS92S1)      
1 64880U 25155E   26169.22993204  .00008040  00000+0  27275-3 0  9996
2 64880  97.4557 137.9347 0008421 158.8823 201.2767 15.30763530 80937
239ALFEROV (RS61S)      
1 64881U 25155F   26169.26336003  .00011428  00000+0  36092-3 0  9990
2 64881  97.4557 138.5333 0008180 155.7389 204.4240 15.32962882 80973
GEOSCAN 2 (RS92S2)      
1 64890U 25155Q   26169.28878941  .00008349  00000+0  28076-3 0  9995
2 64890  97.4556 138.1468 0008224 146.2579 213.9187 15.31036445 80951
GEOSCAN 5 (RS92S5)      
1 64891U 25155R   26169.25216200  .00010869  00000+0  34012-3 0  9994
2 64891  97.4550 138.6598 0006917 159.3411 200.8112 15.33279713 80987
GEOSCAN 4 (RS92S4)      
1 64892U 25155S   26169.23624702  .00010622  00000+0  33086-3 0  9990
2 64892  97.4553 138.6927 0006966 158.9783 201.1747 15.33434530 80986
GEOSCAN 3 (RS92S3)      
1 64893U 25155T   26169.23564612  .00013511  00000+0  39443-3 0  9997
2 64893  97.4541 139.1246 0006923 157.2273 202.9279 15.35424452 81011
